1 54659U 22166T   23305.86745158  .00000003  00000-0 -23383-4 0  9990
2 54659  87.9227  74.7557 0001925 100.2521 259.8830 13.21827141 44945
1 54660U 22166U   23305.88636045  .00001448  00000-0  34734-2 0  9991
2 54660  87.9224  74.7486 0001669  89.2501 270.8825 13.21819796 44960
1 54661U 22166V   23305.86427395  .00000015  00000-0  53054-5 0  9994
2 54661  87.9222  74.7459 0001333 102.6951 257.4332 13.21827479 44934
1 54662U 22166W   23305.91318053  .00000020  00000-0  16243-4 0  9995
2 54662  87.9227  74.7375 0001966 107.5183 252.6165 13.21825434 44941
1 54663U 22166X   23305.89424976 -.00000024  00000-0 -90006-4 0  9990
2 54663  87.9227  74.7420 0002091  95.9985 264.1387 13.21826394 44943
1 54664U 22166Y   23305.87691790 -.00000001  00000-0 -34758-4 0  9996
2 54664  87.9228  74.7962 0001933  94.2742 265.8613 13.21827558 44913
1 54665U 22166Z   23305.86902727  .00000014  00000-0  26395-5 0  9992
2 54665  87.9227  74.7476 0001960 111.3916 248.7427 13.21823564 45105
1 54666U 22166AA  23305.91001282 -.00000028  00000-0 -99813-4 0  9996
2 54666  87.9227  74.7456 0002076  97.0345 263.1025 13.21825172 44953
